 2025  530 1100  8.2 LV 16.714 -62.180  2.4  MVO  7 0.2 1.9LMVO                1
 GAP=115   MVO  0.43       0.7     0.7  1.8  0.5094E-02  0.2618E+00 -0.7119E-01E
 2025  530 1100  8.222  16.71427  -62.18041    2.447  0.230 MVO                H
 ACTION:UP  25-05-30 13:11 OP:vab  STATUS:               ID:20250530105941     I
 OLDACT:REG 25-05-30 13:04 OP:vab  STATUS:               ID:20250530105941     3
 2025-05-30-1059-41S.MV____045                                                 6
 VOLC MAIN t                                                                   3
 STAT SP IPHASW D HRMM SECON CODA AMPLIT PERI AZIMU VELO AIN AR TRES W  DIS CAZ7
 MSS1 SZ IP   1 C 11 0 9.195                             152    0.21 7 0.88  19 
 MBLY HZ IP   1 C 11 0 9.340                             139    0.29 7 1.37 305 
 MBLY H2 IS   2   11 0 9.730                             139    0.05 5 1.37 305 
 MBLY H1  IAML    11 0 9.929      2393.7 0.10                          1.37 305 
 MBLG HZ IP   1 D 11 0 9.353                             123    0.04 7 2.27  58 
 MBLG H2 IS   2 D 11 0 9.796                             123   -0.33 5 2.27  58 
 MBLG H2  IAML    11 010.028      2485.6 0.15                          2.27  58 
 MBFR HZ IP   1 C 11 0 9.403                             126    0.00 7 2.37 174 
 MBFR H2 IS   2   11 0 9.937                             126   -0.35 5 2.37 174 
 MBFR H1  IAML    11 011.652      1910.9 0.12                          2.37 174 
 MBBY HZ IP   1 D 11 0 9.616                             115    0.08 7 2.99 232 
 MBBY H2 IS   2   11 010.298                             115   -0.23 5 2.99 232 
 MBBY H1  IAML    11 013.101       361.3 0.15                          2.99 232 
 MBGH HZ IP   1 D 11 0 9.801                             116    0.17 7 3.15 287 
 MBGH H1 IS   2   11 010.667                             116   -0.01 5 3.15 287 
 MBGH H2  IAML    11 012.194       708.6 0.22                          3.15 287 
 MBFL HZ IP   1 C 11 010.173                             106   -0.17 7 5.10 318 
 MBFL H2 IS   2   11 011.392                             106   -0.55 5 5.10 318 
 MBFL H1  IAML    11 013.162       134.4 0.33                          5.10 318 
                                                                                
 2025  6 1 1322 26.8 LV 16.710 -62.178  2.0  MVO  7 0.2 1.6LMVO                1
 GAP= 76   MVO  0.36       0.6     0.5  2.0 -0.1984E-01  0.7096E-01 -0.7773E-01E
 2025  6 1 1322 26.780  16.70967  -62.17825    2.021  0.181 MVO                H
 ACTION:UP  25-06-02 13:14 OP:vab  STATUS:               ID:20250601132159     I
 OLDACT:REG 25-06-01 19:46 OP:vab  STATUS:               ID:20250601132159     3
 2025-06-01-1321-59S.MV____045                                                 6
 VOLC MAIN t                                                                   3
 STAT SP IPHASW D HRMM SECON CODA AMPLIT PERI AZIMU VELO AIN AR TRES W  DIS CAZ7
 MSS1 SZ IP   1 D 132227.660                             133    0.14 7 1.35   2 
 MBFR HZ IP   1 D 132227.887                             126    0.20 7 1.84 179 
 MBFR H2 IS   2   132228.276                             126   -0.09 5 1.84 179 
 MBFR H2  IAML    132228.665       789.9 0.17                          1.84 179 
 MBLY HZ IP   1 C 132227.780                             121    0.12 7 1.87 314 
 MBLY H2 IS   2   132228.274                             121   -0.04 5 1.87 314 
 MBLY H2  IAML    132228.472      1032.3 0.15                          1.87 314 
 MBLG HZ IP   1 C 132227.863                             114    0.03 7 2.41  45 
 MBLG H1 IS   2   132228.424                             114   -0.20 5 2.41  45 
 MBLG H1  IAML    132228.559       521.5 0.16                          2.41  45 
 MBRY BZ IP   1 D 132227.956                             112   -0.01 7 2.75 103 
 MBRY BE IS   2   132228.657                             112   -0.21 5 2.75 103 
 MBRY BN  IAML    132229.151       410.4 0.15                          2.75 103 
 MBBY HZ IP   1 C 132228.090                             108    0.09 7 2.91 243 
 MBBY H1 IS   2   132228.516                             108   -0.41 5 2.91 243 
 MBBY H1  IAML    132229.876       143.6 0.10                          2.91 243 
 MBFL HZ EP   2 C 132228.744                             100   -0.33 5 5.64 320 
                                                                                
 2025  6 1 1853 46.5 LV 16.711 -62.174  1.3  MVO  5 0.1 1.3LMVO                1
 GAP=110   MVO  0.28       0.4     0.5  3.6  0.3677E-01 -0.4840E+00 -0.4314E+00E
 2025  6 1 1853 46.490  16.71062  -62.17387    1.260  0.087 MVO                H
 ACTION:UP  25-06-02 13:17 OP:vab  STATUS:               ID:20250601185319     I
 OLDACT:REG 25-06-02 13:04 OP:vab  STATUS:               ID:20250601185319     3
 2025-06-01-1853-19S.MV____045                                                 6
 VOLC MAIN t                                                                   3
 STAT SP IPHASW D HRMM SECON CODA AMPLIT PERI AZIMU VELO AIN AR TRES W  DIS CAZ7
 MSS1 SZ IP   1 C 185347.205                             111    0.16 7 1.31 342 
 MBFR HZ IP   1 C 185347.347                             106    0.03 7 2.00 193 
 MBFR H2 IS   2   185347.885                             106   -0.06 5 2.00 193 
 MBFR H2  IAML    185348.553       263.2 0.08                          2.00 193 
 MBLG HZ IP   1 C 185347.344                              99    0.04 7 2.02  38 
 MBLG H1 IS   2   185347.775                              99   -0.14 5 2.02  38 
 MBLG H1  IAML    185348.020       241.8 0.11                          2.02  38 
 MBLY HZ IP   1 C 185347.339                             100   -0.03 7 2.18 303 
 MBLY H2 IS   2   185347.896                             100   -0.14 5 2.18 303 
 MBLY H2  IAML    185348.041       331.5 0.06                          2.18 303 
 MBRY BZ IP   1 D 185347.421                              99   -0.01 7 2.33 109 
 MBRY BN IS   2   185348.097                              99   -0.05 5 2.33 109 
 MBRY BN  IAML    185349.722       195.8 0.31                          2.33 109 
                                                                                
 2025  6 2 0346 48.7 LV 16.711 -62.178  2.4  MVO  8 0.2 1.4LMVO                1
 GAP= 72   MVO  0.32       0.5     0.5  1.4  0.5591E-02  0.1283E+00 -0.8686E-01E
 2025  6 2 0346 48.727  16.71147  -62.17812    2.404  0.187 MVO                H
 ACTION:UP  25-06-02 13:24 OP:vab  STATUS:               ID:20250602034622     I
 OLDACT:REG 25-06-02 13:04 OP:vab  STATUS:               ID:20250602034622     3
 2025-06-02-0346-22S.MV____045                                                 6
 VOLC MAIN t                                                                   3
 STAT SP IPHASW D HRMM SECON CODA AMPLIT PERI AZIMU VELO AIN AR TRES W  DIS CAZ7
 MSS1 SZ IP   1 C  34649.730                             145    0.20 7 1.15   2 
 MBLY HZ IP   1 D  34649.807                             131    0.15 7 1.76 308 
 MBLY H2 IS   2    34650.366                             131    0.01 5 1.76 308 
 MBLY H2  IAML     34651.673       248.7 0.20                          1.76 308 
 MBFR HZ IP   1 C  34649.885                             130    0.09 7 2.04 180 
 MBFR H2 IS   2    34650.424                             130   -0.17 5 2.04 180 
 MBFR H2  IAML     34651.057       614.8 0.10                          2.04 180 
 MBLG HZ IP   1 C  34649.890                             123    0.09 7 2.26  48 
 MBLG H2 IS   2    34650.466                             123   -0.14 5 2.26  48 
 MBLG H2  IAML     34650.627       279.9 0.13                          2.26  48 
 MBRY BZ IP   1 D  34649.948                             119   -0.05 7 2.79 107 
 MBRY BN IS   2    34650.737                             119   -0.21 5 2.79 107 
 MBRY BN  IAML     34652.620       153.2 0.26                          2.79 107 
 MBBY HZ IP   1 C  34650.120                             114    0.07 7 3.02 240 
 MBBY H2 IS   2    34650.852                             114   -0.18 5 3.02 240 
 MBBY H2  IAML     34652.259       237.2 0.22                          3.02 240 
 MBGH HZ EP   2 D  34650.297                             114    0.05 5 3.48 291 
 MBGH H2 ES   3    34651.393                             114    0.01 2 3.48 291 
 MBFL HZ IP   1 C  34650.800                             104   -0.20 7 5.50 318 
 MBFL H2 IS   3    34651.938                             104   -0.76 2 5.50 318 
                                                                                
 2025  6 3 1359 11.3 LV 16.712 -62.179  2.2  MVO  8 0.2 1.4LMVO                1
 GAP= 70   MVO  0.36       0.5     0.5  1.7  0.1935E-01  0.7830E-01 -0.3844E-01E
 2025  6 3 1359 11.297  16.71199  -62.17868    2.224  0.215 MVO                H
 ACTION:UP  25-06-03 18:42 OP:vab  STATUS:               ID:20250603135844     I
 OLDACT:REG 25-06-03 18:37 OP:vab  STATUS:               ID:20250603135844     3
 2025-06-03-1358-44S.MV____045                                                 6
 VOLC MAIN t                                                                   3
 STAT SP IPHASW D HRMM SECON CODA AMPLIT PERI AZIMU VELO AIN AR TRES W  DIS CAZ7
 MSS1 SZ IP   1 C 135912.266                             143    0.24 7 1.09   5 
 MBLY HZ IP   1 D 135912.354                             129    0.20 7 1.67 308 
 MBLY H1 IS   2   135912.853                             129    0.06 5 1.67 308 
 MBLY H2  IAML    135913.176       326.8 0.05                          1.67 308 
 MBFR HZ IP   1 C 135912.459                             126    0.12 7 2.10 178 
 MBFR H1 IS   2   135912.927                             126   -0.19 5 2.10 178 
 MBFR H2  IAML    135913.219       570.2 0.14                          2.10 178 
 MBLG HZ IP   1 C 135912.435                             119    0.10 7 2.27  51 
 MBLG H1 IS   2   135913.006                             119   -0.11 5 2.27  51 
 MBLG H1  IAML    135913.519       200.0 0.12                          2.27  51 
 MBRY BZ IP   1 D 135912.521                             115   -0.04 7 2.86 108 
 MBRY BE IS   2   135913.226                             115   -0.28 5 2.86 108 
 MBRY BE  IAML    135914.461       189.3 0.20                          2.86 108 
 MBBY HZ IP   1 C 135912.653                             111    0.07 7 3.00 238 
 MBBY H2 IS   2   135913.261                             111   -0.28 5 3.00 238 
 MBBY H2  IAML    135914.686       188.2 0.15                          3.00 238 
 MBWH HZ IP   1 D 135912.754                             111   -0.08 7 3.59 339 
 MBWH H1 IS   2   135913.675                             111   -0.31 5 3.59 339 
 MBFL HZ EP   2 D 135913.452                             103   -0.07 5 5.42 318 
 MBFL H1 ES   3   135914.395                             103   -0.79 2 5.42 318 
                                                                                
 2025  6 4 2316  1.4 LV 16.712 -62.177  4.0  MVO  8 0.3 1.8LMVO                1
 GAP= 75   MVO  0.52       1.4     1.1  1.0 -0.1577E-01  0.3204E+00 -0.5721E+00E
 2025  6 4 2316  1.417  16.71153  -62.17699    3.997  0.276 MVO                H
 ACTION:UP  25-06-05 13:18 OP:vab  STATUS:               ID:20250604231534     I
 OLDACT:REG 25-06-05 13:13 OP:vab  STATUS:               ID:20250604231534     3
 2025-06-04-2315-34S.MV____045                                                 6
 VOLC MAIN t                                                                   3
 STAT SP IPHASW D HRMM SECON CODA AMPLIT PERI AZIMU VELO AIN AR TRES W  DIS CAZ7
 MSS1 SZ IP   1 C 2316 2.926                             153    0.17 7 1.14 356 
 MBLY HZ IP   1 D 2316 3.026                             137    0.20 7 1.85 306 
 MBLY H2 IS   2   2316 3.566                             137   -0.31 5 1.85 306 
 MBLY H2  IAML    2316 3.743       903.6 0.07                          1.85 306 
 MBFR HZ IP   1 C 2316 3.096                             135    0.17 7 2.05 183 
 MBFR H2 IS   2   2316 3.693                             135   -0.37 5 2.05 183 
 MBFR H1  IAML    2316 4.694      1348.1 0.24                          2.05 183 
 MBLG HZ IP   1 C 2316 3.074                             130    0.21 7 2.17  47 
 MBLG H2 IS   2   2316 3.643                             130   -0.31 5 2.17  47 
 MBLG H2  IAML    2316 4.070       881.7 0.10                          2.17  47 
 MBRY BZ IP   1 D 2316 3.085                             121    0.08 7 2.68 108 
 MBRY BN IS   2   2316 3.642                             121   -0.56 5 2.68 108 
 MBRY BN  IAML    2316 4.255       462.9 0.09                          2.68 108 
 MBBY HZ IP   1 C 2316 3.316                             111    0.25 7 3.13 241 
 MBBY H2 IS   2   2316 3.926                             111   -0.37 5 3.13 241 
 MBBY H2  IAML    2316 5.368       369.4 0.14                          3.13 241 
 MBGH HZ IP   1 D 2316 3.560                             107    0.32 7 3.59 290 
 MBGH H2 ES   2   2316 4.455                             107   -0.16 5 3.59 290 
 MBGH H2  IAML    2316 7.252       255.3 0.20                          3.59 290 
 MBFL HZ EP   2 C 2316 3.877                              36    0.15 5 5.57 317 
 MBFL H2 IS       2316 5.149                              36   -0.3010 5.57 317 
 MBFL H2  IAML    2316 6.030       104.1 0.16                          5.57 317 
                                                                                
 2025  6 6  247  5.0 LV                      MVO                               1
 ACTION:REG 25-06-06 12:49 OP:vab  STATUS:               ID:20250606024705     I
 2025-06-06-0247-05S.MV____045                                                 6
 VOLC MAIN t                                                                   3
 STAT SP IPHASW D HRMM SECON CODA AMPLIT PERI AZIMU VELO AIN AR TRES W  DIS CAZ7
 MBRY BZ IP   1 C  24734.293                                                    
                                                                                
